OPS 6582 (TRANSIT 5B-5) 
1 00965U 64083D   22223.67402620  .00000012  00000+0  33925-5 0  9998
2 00965  90.0272 195.5923 0043052  68.6232 104.3249 13.56784492853577
OSCAR 7 (AO-7)          
1 07530U 74089B   22223.57342788 -.00000045  00000+0  32619-5 0  9993
2 07530 101.9084 203.6254 0011924 297.8222 176.0448 12.53656265184375
UOSAT 2 (UO-11)         
1 14781U 84021B   22223.54979108  .00000593  00000+0  77646-4 0  9990
2 14781  97.6210 208.4844 0009464 133.3651 226.8353 14.83748266 48216
NOAA 9                  
1 15427U 84123A   22223.56835462  .00000048  00000+0  47316-4 0  9993
2 15427  99.0493 196.8287 0015161  13.3865  97.7207 14.16214461944410
LUSAT (LO-19)           
1 20442U 90005G   22223.46823046  .00000051  00000+0  35291-4 0  9999
2 20442  98.7980 189.1820 0012019  12.9594 347.1896 14.33076228700985
ITAMSAT (IO-26)         
1 22826U 93061D   22223.30379945  .00000055  00000+0  38831-4 0  9996
2 22826  98.8787 255.3684 0008062 234.2422 125.8011 14.30532296506258
RADIO ROSTO (RS-15)     
1 23439U 94085A   22223.56214386 -.00000039  00000+0  10000-3 0  9999
2 23439  64.8125  56.4808 0167846 263.1706  95.0095 11.27571915137702
JAS-2 (FO-29)           
1 24278U 96046B   22223.52116712  .00000017  00000+0  50625-4 0  9993
2 24278  98.5154 239.6361 0351042 140.2881 222.4533 13.53118534283059
NOAA 15                 
1 25338U 98030A   22223.56463934  .00000115  00000+0  66294-4 0  9999
2 25338  98.6416 252.3720 0011287 132.9945 227.2183 14.26159705260878
TECHSAT 1B (GO-32)      
1 25397U 98043D   22223.45491737  .00000013  00000+0  25427-4 0  9998
2 25397  98.8206 174.0779 0000887   8.7262 351.3931 14.23765031251256
ISS (ZARYA)             
1 25544U 98067A   22223.85858796  .00005080  00000+0  96458-4 0  9995
2 25544  51.6435  60.7994 0005755 110.8341  79.0000 15.50139625353814
ORSTED                  
1 25635U 99008B   22223.54451434  .00000235  00000+0  63049-4 0  9993
2 25635  96.4541  75.5493 0138416   6.1996 354.0874 14.48509017238259
PHASE 3D (AO-40)        
1 26609U 00072B   22223.51660741 -.00000213  00000+0  00000+0 0  9998
2 26609   6.0642 257.6431 7991394  40.2899 357.2620  1.25589357 99845
PCSAT (NO-44)           
1 26931U 01043C   22223.53783228  .00000034  00000+0  44653-4 0  9990
2 26931  67.0504 276.2152 0006892 257.8267 102.2063 14.30722869 89285
SAUDISAT 1C (SO-50)     
1 27607U 02058C   22223.19613763  .00000395  00000+0  74666-4 0  9993
2 27607  64.5548 134.3730 0080639 283.9307  75.2837 14.76195728 56660
CUTE-1 (CO-55)          
1 27844U 03031E   22223.57318861  .00000158  00000+0  90535-4 0  9991
2 27844  98.6795 230.4281 0008865 307.3716  52.6654 14.22477915991701
CUBESAT XI-IV (CO-57)   
1 27848U 03031J   22223.55339946  .00000132  00000+0  79656-4 0  9993
2 27848  98.6839 230.9167 0008965 322.9581  37.0977 14.22031690991516
MOZHAYETS 4 (RS-22)     
1 27939U 03042A   22223.63083684  .00000569  00000+0  10928-3 0  9990
2 27939  98.1987   4.3584 0013577  38.9572 321.2609 14.67420437  9139
INMARSAT 4-F1           
1 28628U 05009A   22223.53452115 -.00000277  00000+0  00000+0 0  9992
2 28628   3.6500  35.6090 0003101 111.4144 148.8730  1.00271027 63578
NOAA 18                 
1 28654U 05018A   22223.66073730  .00000109  00000+0  82934-4 0  9991
2 28654  98.9465 294.0463 0014552 171.5621 188.5798 14.12762922887865
CUBESAT XI-V            
1 28895U 05043F   22223.31848867  .00000550  00000+0  11286-3 0  9990
2 28895  98.1133 353.8737 0015867 332.7384  27.2984 14.64419901895443
METOP-A                 
1 29499U 06044A   22223.54065490  .00000695  00000+0  10079-3 0  9990
2 29499  98.4476 269.8941 0197456 194.9737 303.4876 14.67309410818759
CARTOSAT-2 (IRS-P7)     
1 29710U 07001B   22223.02689680  .00013453  00000+0  32800-3 0  9998
2 29710  97.8698 331.7200 0146747 225.4721 133.4455 15.30559271844588
FALCONSAT-3             
1 30776U 07006E   22223.46651735  .00030757  00000+0  41182-3 0  9994
2 30776  35.4292 258.9186 0003753 208.4287 151.6241 15.56989993858159
CAPE-1                  
1 31130U 07012P   22223.51597260  .00000523  00000+0  11920-3 0  9999
2 31130  98.2706 163.7060 0096120 122.2233 238.8328 14.57176521813115
CARTOSAT-2A             
1 32783U 08021A   22223.84102988  .00000270  00000+0  43895-4 0  9996
2 32783  97.9627 283.5027 0012343 355.8202   4.2857 14.78641839771204
CUTE-1.7+APD II (CO-65) 
1 32785U 08021C   22223.37582335  .00001342  00000+0  14549-3 0  9998
2 32785  97.6615 192.5011 0014026  56.1412 304.1138 14.89742952774663
COMPASS-1               
1 32787U 08021E   22223.49826999  .00003454  00000+0  31170-3 0  9995
2 32787  97.5657 203.6258 0010506 330.2972  29.7652 14.96113096776283
AAUSAT-II               
1 32788U 08021F   22223.42382292  .00003124  00000+0  27029-3 0  9994
2 32788  97.5353 206.8135 0009485 301.2320  58.7973 14.97842794776660
DELFI-C3 (DO-64)        
1 32789U 08021G   22223.65737800  .00008111  00000+0  43879-3 0  9991
2 32789  97.3367 247.9931 0012047 127.3139 232.9193 15.14846753780380
SEEDS II (CO-66)        
1 32791U 08021J   22223.40791547  .00002301  00000+0  22689-3 0  9996
2 32791  97.6153 197.9673 0013062  14.6539 345.5057 14.92897860775391
YUBILEINY (RS-30)       
1 32953U 08025A   22223.58977117  .00000024  00000+0  10000-3 0  9992
2 32953  82.5047 149.6577 0019651 136.5892 223.6743 12.43112492645185
FENGYUN 3A              
1 32958U 08026A   22223.47773850  .00000035  00000+0  37172-4 0  9996
2 32958  98.5063 183.8722 0007886 218.5587 141.5027 14.18732293736024
PRISM (HITOMI)          
1 33493U 09002B   22223.51181461  .00003697  00000+0  30022-3 0  9995
2 33493  98.2280 213.2174 0017066   6.2467 353.8964 15.00203968737232
STARS (KUKAI)           
1 33498U 09002G   22222.94361922  .00001000  00000+0  13894-3 0  9992
2 33498  98.1621 115.8560 0012123  77.4282 282.8285 14.80105650729497
KKS-1 (KISEKI)          
1 33499U 09002H   22223.55843596  .00000464  00000+0  74980-4 0  9990
2 33499  98.2100 106.4998 0009909 132.8776 227.3267 14.76079384728373
NOAA 19                 
1 33591U 09005A   22223.52662315  .00000123  00000+0  91348-4 0  9990
2 33591  99.1449 258.8112 0014457  37.2535 322.9636 14.12597112695961
SWISSCUBE               
1 35932U 09051B   22223.59436167  .00000429  00000+0  10643-3 0  9990
2 35932  98.5629  81.0572 0006403 233.7966 126.2640 14.56921131684164
BEESAT-1                
1 35933U 09051C   22223.54896232  .00000365  00000+0  92246-4 0  9998
2 35933  98.5568  82.6021 0004513 247.9759 112.0959 14.56930233684192
ITUPSAT1                
1 35935U 09051E   22223.60015551  .00000328  00000+0  85618-4 0  9998
2 35935  98.5669  82.6960 0006803 252.7579 107.2873 14.56034686683935
XIWANG-1 (HOPE-1)       
1 36122U 09072B   22223.52569674 -.00000060  00000+0 -43773-4 0  9992
2 36122 100.1870 192.8738 0007034 210.3138 149.7569 13.16370850608057
CARTOSAT-2B             
1 36795U 10035A   22223.60804263  .00000319  00000+0  50550-4 0  9990
2 36795  97.9571 283.3814 0015174  68.6093 291.6734 14.78685180652215
TISAT 1                 
1 36799U 10035E   22223.54298998  .00002008  00000+0  19854-3 0  9997
2 36799  98.1776  76.1513 0010351 276.4037  83.6003 14.93098107656184
FENGYUN 3B              
1 37214U 10059A   22223.53475672  .00000011  00000+0  29747-4 0  9996
2 37214  99.0930 230.4867 0021820 197.3899 162.6529 14.14261884608743
JUGNU                   
1 37839U 11058B   22223.30186288  .00000362  00000+0  50856-4 0  9990
2 37839  19.9597 202.7854 0019007  42.2259  92.6663 14.12797707559906
SRMSAT                  
1 37841U 11058D   22223.51781058  .00000340  00000+0  41459-4 0  9997
2 37841  19.9719 282.0773 0011664 228.7904 265.0852 14.10764841559025
M-CUBED & EXP-1 PRIME   
1 37855U 11061F   22223.40074819  .00006715  00000+0  29294-3 0  9998
2 37855 101.7158  11.6085 0151396 257.5682 100.8556 15.13065077589545
HORYU-2                 
1 38340U 12025D   22223.16175263  .00000913  00000+0  13780-3 0  9994
2 38340  98.1930 302.3721 0012396  57.1677 303.0724 14.76756348540315
METOP-B                 
1 38771U 12049A   22223.82092351  .00000047  00000+0  41631-4 0  9992
2 38771  98.6921 282.7442 0000532 123.6736 348.7198 14.21500535513599
SARAL                   
1 39086U 13009A   22223.51729120  .00000034  00000+0  29055-4 0  9998
2 39086  98.5486  48.3392 0002304  97.6960 262.4485 14.32056074494362
AAUSAT 3                
1 39087U 13009B   22223.52162153  .00000238  00000+0  96089-4 0  9994
2 39087  98.3992  61.6888 0013466  99.6200 260.6533 14.36220320495480
STRAND-1                
1 39090U 13009E   22223.51096313  .00000139  00000+0  63257-4 0  9992
2 39090  98.4027  60.2044 0010245 105.2641 254.9678 14.35312205495296
BRITE-AUSTRIA           
1 39091U 13009F   22223.49647936  .00000086  00000+0  44705-4 0  9991
2 39091  98.4043  59.3668 0011593 111.7579 248.4842 14.35289784495325
UNIBRITE                
1 39092U 13009G   22223.52309338  .00000074  00000+0  40691-4 0  9994
2 39092  98.4077  59.1650 0010566 107.2034 253.0309 14.35160408495283
SOMP                    
1 39134U 13015E   22223.43459960  .00009953  00000+0  34452-3 0  9997
2 39134  64.8589 241.2720 0035753 272.1029  87.6009 15.29737279515267
BEESAT-3                
1 39135U 13015F   22223.56749272  .00006850  00000+0  27764-3 0  9991
2 39135  64.8651 278.2406 0039337 277.5257  82.1404 15.24751535514515
BEESAT-2                
1 39136U 13015G   22223.52052602  .00006333  00000+0  26936-3 0  9998
2 39136  64.8743 286.8819 0020222 297.6511  62.2565 15.23720981514304
NEE-01 PEGASO           
1 39151U 13018B   22223.23785665  .00000865  00000+0  11823-3 0  9991
2 39151  97.9945 328.7251 0018138  79.0781 281.2471 14.81047162501785
CUBEBUG-1 (CAPITAN BETO)
1 39153U 13018D   22223.54937468  .00001047  00000+0  13925-3 0  9995
2 39153  98.0168 333.6674 0017929  73.0084 287.3091 14.81761367501917
